{"fetched_at":"2026-04-02T08:58:24Z","count":10811,"tles":[{"name":"RASSVET-3 OBJECT L","line1":"1 68370U 26061L   26090.65677140  .00065557  34380-6  22715-3 0  9994","line2":"2 68370  82.2970  99.7104 0026563  44.4425 315.8970 15.88690838  1267","category":"Other"}]}